[{"OBJECT_NAME":"ION SCV-017","OBJECT_ID":"2025-052W","EPOCH":"2026-03-09T17:11:44.577024","MEAN_MOTION":15.26881798,"ECCENTRICITY":0.0023746,"INCLINATION":97.4016,"RA_OF_ASC_NODE":324.7516,"ARG_OF_PERICENTER":44.9875,"MEAN_ANOMALY":315.3282,"EPHEMERIS_TYPE":0,"CLASSIFICATION_TYPE":"U","NORAD_CAT_ID":63230,"ELEMENT_SET_NO":999,"REV_AT_EPOCH":5485,"BSTAR":0.00024539061,"MEAN_MOTION_DOT":6.457e-5,"MEAN_MOTION_DDOT":0},{"OBJECT_NAME":"STARLINK-35821","OBJECT_ID":"2025-254AA","EPOCH":"2026-03-09T17:22:21.026208","MEAN_MOTION":15.30210868,"ECCENTRICITY":0.00010619,"INCLINATION":53.1584,"RA_OF_ASC_NODE":229.9257,"ARG_OF_PERICENTER":51.4783,"MEAN_ANOMALY":308.6312,"EPHEMERIS_TYPE":0,"CLASSIFICATION_TYPE":"U","NORAD_CAT_ID":66372,"ELEMENT_SET_NO":999,"REV_AT_EPOCH":1901,"BSTAR":0.0011301277,"MEAN_MOTION_DOT":0.00033273,"MEAN_MOTION_DDOT":0}]
